*******************************************************************************
Ephemeris / WWW_USER Mon Mar 10 07:09:04 2025 Pasadena, USA      / Horizons    
*******************************************************************************
Target body name: (2018 OZ)                       {source: JPL#6}
Center body name: Earth (399)                     {source: DE441}
Center-site name: Mauna Kea
*******************************************************************************
Start time      : A.D. 2018-Nov-11 03:53:00.0000 UT      
Stop  time      : A.D. 2018-Nov-11 16:18:00.0000 UT      
Step-size       : 1 minutes
*******************************************************************************
Target pole/equ : undefined
Target radii    : undefined                                                    
Center geodetic : 204.5278, 19.8260847, 4.21024   {E-lon(deg),Lat(deg),Alt(km)}
Center cylindric: 204.5278, 6006.35451, 2151.0229 {E-lon(deg),Dxy(km),Dz(km)}
Center pole/equ : ITRF93                          {East-longitude positive}
Center radii    : 6378.137, 6378.137, 6356.752 km {Equator_a, b, pole_c}       
Target primary  : Sun
Vis. interferer : MOON (R_eq= 1737.400) km        {source: DE441}
Rel. light bend : Sun                             {source: DE441}
Rel. lght bnd GM: 1.3271E+11 km^3/s^2                                          
Small-body perts: Yes                             {source: SB441-N16}
Atmos refraction: NO (AIRLESS)
RA format       : HMS
Time format     : CAL 
Calendar mode   : Mixed Julian/Gregorian
RTS-only print  : NO       
EOP file        : eop.250307.p250603                                           
EOP coverage    : DATA-BASED 1962-JAN-20 TO 2025-MAR-07. PREDICTS-> 2025-JUN-02
Units conversion: 1 au= 149597870.700 km, c= 299792.458 km/s, 1 day= 86400.0 s 
Table cut-offs 1: Elevation (-90.0deg=NO ),Airmass (>38.000=NO), Daylight (YES)
Table cut-offs 2: Solar elongation (  0.0,180.0=NO ),Local Hour Angle( 0.0=NO )
Table cut-offs 3: RA/DEC angular rate (     0.0=NO )                           
*******************************************************************************
Initial IAU76/J2000 heliocentric ecliptic osculating elements (au, days, deg.):
  EPOCH=  2458323.5 ! 2018-Jul-24.00 (TDB)         Residual RMS= .14478        
   EC= .2444891433359997   QR= .7813773137930096   TP= 2458414.1453434308      
   OM= 132.5941973996665   W=  282.5797798661226   IN= 11.86066121595313       
  Equivalent ICRF heliocentric cartesian coordinates (au, au/d):
   X= 5.818664496311505E-01  Y=-8.413793559776328E-01  Z=-3.233166781784031E-01
  VX= 1.092981696788880E-02 VY= 1.198494789184266E-02 VZ= 1.554952570596135E-03
Asteroid physical parameters (km, seconds, rotational period in hours):        
   GM= n.a.                RAD= n.a.               ROTPER= n.a.                
   H= 24.9                 G= .150                 B-V= n.a.                   
                           ALBEDO= n.a.            STYP= n.a.                  
*******************************************************************************
 Date__(UT)__HR:MN     R.A._________(ICRF)_________DEC
******************************************************
$$SOE
 2018-Nov-11 03:53 Cm  11 25 13.615286 -08 19 01.44283
 2018-Nov-11 03:54 Cm  11 25 13.757838 -08 19 01.35203
 2018-Nov-11 03:55 Cm  11 25 13.900401 -08 19 01.26127
 2018-Nov-11 03:56 Cm  11 25 14.042975 -08 19 01.17055
 2018-Nov-11 03:57 Cm  11 25 14.185560 -08 19 01.07987
 2018-Nov-11 03:58 Cm  11 25 14.328155 -08 19 00.98922
 2018-Nov-11 03:59 Cm  11 25 14.470760 -08 19 00.89861
 2018-Nov-11 04:00 Cm  11 25 14.613377 -08 19 00.80803
 2018-Nov-11 04:01 Cm  11 25 14.756003 -08 19 00.71749
 2018-Nov-11 04:02 Cm  11 25 14.898640 -08 19 00.62699
 2018-Nov-11 04:03 Cm  11 25 15.041288 -08 19 00.53653
 2018-Nov-11 04:04 Cm  11 25 15.183945 -08 19 00.44610
 2018-Nov-11 04:05 Cm  11 25 15.326613 -08 19 00.35571
 2018-Nov-11 04:06 Cm  11 25 15.469291 -08 19 00.26536
 2018-Nov-11 04:07 Nm  11 25 15.611979 -08 19 00.17505
 2018-Nov-11 04:08 Nm  11 25 15.754677 -08 19 00.08477
 2018-Nov-11 04:09 Nm  11 25 15.897385 -08 18 59.99454
 2018-Nov-11 04:10 Nm  11 25 16.040103 -08 18 59.90434
 2018-Nov-11 04:11 Nm  11 25 16.182830 -08 18 59.81418
 2018-Nov-11 04:12 Nm  11 25 16.325568 -08 18 59.72405
 2018-Nov-11 04:13 Nm  11 25 16.468315 -08 18 59.63397
 2018-Nov-11 04:14 Nm  11 25 16.611072 -08 18 59.54392
 2018-Nov-11 04:15 Nm  11 25 16.753838 -08 18 59.45391
 2018-Nov-11 04:16 Nm  11 25 16.896614 -08 18 59.36394
 2018-Nov-11 04:17 Nm  11 25 17.039399 -08 18 59.27401
 2018-Nov-11 04:18 Nm  11 25 17.182194 -08 18 59.18411
 2018-Nov-11 04:19 Nm  11 25 17.324998 -08 18 59.09426
 2018-Nov-11 04:20 Nm  11 25 17.467812 -08 18 59.00444
 2018-Nov-11 04:21 Nm  11 25 17.610634 -08 18 58.91467
 2018-Nov-11 04:22 Nm  11 25 17.753466 -08 18 58.82493
 2018-Nov-11 04:23 Nm  11 25 17.896306 -08 18 58.73523
 2018-Nov-11 04:24 Nm  11 25 18.039156 -08 18 58.64557
 2018-Nov-11 04:25 Nm  11 25 18.182015 -08 18 58.55595
 2018-Nov-11 04:26 Nm  11 25 18.324882 -08 18 58.46637
 2018-Nov-11 04:27 Nm  11 25 18.467759 -08 18 58.37683
 2018-Nov-11 04:28 Nm  11 25 18.610644 -08 18 58.28733
 2018-Nov-11 04:29 Nm  11 25 18.753538 -08 18 58.19786
 2018-Nov-11 04:30 Nm  11 25 18.896440 -08 18 58.10844
 2018-Nov-11 04:31 Nm  11 25 19.039351 -08 18 58.01906
 2018-Nov-11 04:32 Nm  11 25 19.182271 -08 18 57.92971
 2018-Nov-11 04:33 Nm  11 25 19.325199 -08 18 57.84041
 2018-Nov-11 04:34 Am  11 25 19.468135 -08 18 57.75115
 2018-Nov-11 04:35 Am  11 25 19.611079 -08 18 57.66192
 2018-Nov-11 04:36 Am  11 25 19.754032 -08 18 57.57274
 2018-Nov-11 04:37 Am  11 25 19.896993 -08 18 57.48359
 2018-Nov-11 04:38 Am  11 25 20.039962 -08 18 57.39449
 2018-Nov-11 04:39 Am  11 25 20.182939 -08 18 57.30543
 2018-Nov-11 04:40 Am  11 25 20.325924 -08 18 57.21641
 2018-Nov-11 04:41 Am  11 25 20.468917 -08 18 57.12742
 2018-Nov-11 04:42 Am  11 25 20.611918 -08 18 57.03848
 2018-Nov-11 04:43 Am  11 25 20.754926 -08 18 56.94958
 2018-Nov-11 04:44 Am  11 25 20.897943 -08 18 56.86072
 2018-Nov-11 04:45 Am  11 25 21.040966 -08 18 56.77190
 2018-Nov-11 04:46 Am  11 25 21.183998 -08 18 56.68312
 2018-Nov-11 04:47 Am  11 25 21.327037 -08 18 56.59438
 2018-Nov-11 04:48 Am  11 25 21.470083 -08 18 56.50569
 2018-Nov-11 04:49 Am  11 25 21.613137 -08 18 56.41703
 2018-Nov-11 04:50 Am  11 25 21.756198 -08 18 56.32842
 2018-Nov-11 04:51 Am  11 25 21.899266 -08 18 56.23984
 2018-Nov-11 04:52 Am  11 25 22.042341 -08 18 56.15131
 2018-Nov-11 04:53 Am  11 25 22.185424 -08 18 56.06282
 2018-Nov-11 04:54 Am  11 25 22.328513 -08 18 55.97437
 2018-Nov-11 04:55 Am  11 25 22.471610 -08 18 55.88596
 2018-Nov-11 04:56 Am  11 25 22.614713 -08 18 55.79759
 2018-Nov-11 04:57 Am  11 25 22.757823 -08 18 55.70927
 2018-Nov-11 04:58 Am  11 25 22.900940 -08 18 55.62098
 2018-Nov-11 04:59 Am  11 25 23.044063 -08 18 55.53274
 2018-Nov-11 05:00  m  11 25 23.187193 -08 18 55.44454
 2018-Nov-11 05:01  m  11 25 23.330330 -08 18 55.35638
 2018-Nov-11 05:02  m  11 25 23.473473 -08 18 55.26826
 2018-Nov-11 05:03  m  11 25 23.616623 -08 18 55.18019
 2018-Nov-11 05:04  m  11 25 23.759778 -08 18 55.09216
 2018-Nov-11 05:05  m  11 25 23.902941 -08 18 55.00416
 2018-Nov-11 05:06  m  11 25 24.046109 -08 18 54.91621
 2018-Nov-11 05:07  m  11 25 24.189283 -08 18 54.82831
 2018-Nov-11 05:08  m  11 25 24.332464 -08 18 54.74044
 2018-Nov-11 05:09  m  11 25 24.475650 -08 18 54.65262
 2018-Nov-11 05:10  m  11 25 24.618842 -08 18 54.56484
 2018-Nov-11 05:11  m  11 25 24.762040 -08 18 54.47710
 2018-Nov-11 05:12  m  11 25 24.905244 -08 18 54.38941
 2018-Nov-11 05:13  m  11 25 25.048454 -08 18 54.30175
 2018-Nov-11 05:14  m  11 25 25.191669 -08 18 54.21414
 2018-Nov-11 05:15  m  11 25 25.334890 -08 18 54.12657
 2018-Nov-11 05:16  m  11 25 25.478116 -08 18 54.03905
 2018-Nov-11 05:17  m  11 25 25.621348 -08 18 53.95156
 2018-Nov-11 05:18  m  11 25 25.764585 -08 18 53.86412
 2018-Nov-11 05:19  m  11 25 25.907827 -08 18 53.77673
 2018-Nov-11 05:20  m  11 25 26.051075 -08 18 53.68937
 2018-Nov-11 05:21  m  11 25 26.194327 -08 18 53.60206
 2018-Nov-11 05:22  m  11 25 26.337585 -08 18 53.51479
 2018-Nov-11 05:23  m  11 25 26.480847 -08 18 53.42756
 2018-Nov-11 05:24  m  11 25 26.624115 -08 18 53.34038
 2018-Nov-11 05:25  m  11 25 26.767387 -08 18 53.25324
 2018-Nov-11 05:26  m  11 25 26.910665 -08 18 53.16614
 2018-Nov-11 05:27  m  11 25 27.053946 -08 18 53.07909
 2018-Nov-11 05:28  m  11 25 27.197233 -08 18 52.99208
 2018-Nov-11 05:29  m  11 25 27.340524 -08 18 52.90511
 2018-Nov-11 05:30  m  11 25 27.483819 -08 18 52.81818
 2018-Nov-11 05:31  m  11 25 27.627119 -08 18 52.73130
 2018-Nov-11 05:32  m  11 25 27.770423 -08 18 52.64446
 2018-Nov-11 05:33  m  11 25 27.913732 -08 18 52.55767
 2018-Nov-11 05:34  m  11 25 28.057045 -08 18 52.47092
 2018-Nov-11 05:35  m  11 25 28.200361 -08 18 52.38421
 2018-Nov-11 05:36  m  11 25 28.343682 -08 18 52.29754
 2018-Nov-11 05:37  m  11 25 28.487007 -08 18 52.21092
 2018-Nov-11 05:38  m  11 25 28.630336 -08 18 52.12435
 2018-Nov-11 05:39  m  11 25 28.773668 -08 18 52.03781
 2018-Nov-11 05:40  m  11 25 28.917004 -08 18 51.95132
 2018-Nov-11 05:41  m  11 25 29.060344 -08 18 51.86487
 2018-Nov-11 05:42  m  11 25 29.203688 -08 18 51.77847
 2018-Nov-11 05:43  m  11 25 29.347035 -08 18 51.69211
 2018-Nov-11 05:44  m  11 25 29.490386 -08 18 51.60579
 2018-Nov-11 05:45  m  11 25 29.633739 -08 18 51.51952
 2018-Nov-11 05:46  m  11 25 29.777097 -08 18 51.43329
 2018-Nov-11 05:47  m  11 25 29.920457 -08 18 51.34711
 2018-Nov-11 05:48  m  11 25 30.063821 -08 18 51.26097
 2018-Nov-11 05:49  m  11 25 30.207188 -08 18 51.17487
 2018-Nov-11 05:50  m  11 25 30.350557 -08 18 51.08881
 2018-Nov-11 05:51  m  11 25 30.493930 -08 18 51.00281
 2018-Nov-11 05:52  m  11 25 30.637306 -08 18 50.91684
 2018-Nov-11 05:53  m  11 25 30.780684 -08 18 50.83092
 2018-Nov-11 05:54  m  11 25 30.924065 -08 18 50.74504
 2018-Nov-11 05:55  m  11 25 31.067449 -08 18 50.65921
